start=new Date('2021-10-30T00:00:00.000Z').valueOf();
sats=[{"BSTAR":"-0.00035027000000","PERIOD":"91.955","DECAY_DATE":null,"REF_FRAME":"TEME","NORAD_CAT_ID":"45752","CENTER_NAME":"EARTH","RCS_SIZE":"LARGE","SITE":"AFETR","EPHEMERIS_TYPE":"0","TLE_LINE2":"2 45752  52.9977 329.5691 0008389 287.7512  72.2587 15.65975212 79199","ARG_OF_PERICENTER":"287.7512","MEAN_MOTION_DOT":"-0.00036917","COUNTRY_CODE":"US","TLE_LINE1":"1 45752U 20038Y   21302.43989585 -.00036917  00000-0 -35027-3 0  9993","CLASSIFICATION_TYPE":"U","EPOCH":"2021-10-29T10:33:27.001440","REV_AT_EPOCH":"7919","SEMIMAJOR_AXIS":"6748.573","ELEMENT_SET_NO":"999","RA_OF_ASC_NODE":"329.5691","MEAN_ANOMALY":"72.2587","LAUNCH_DATE":"2020-06-13","OBJECT_ID":"2020-038Y","MEAN_MOTION":"15.65975212","OBJECT_TYPE":"PAYLOAD","GP_ID":"188433621","PERIAPSIS":"364.776","MEAN_MOTION_DDOT":"0.0000000000000","TIME_SYSTEM":"UTC","MEAN_ELEMENT_THEORY":"SGP4","FILE":"3191412","ECCENTRICITY":"0.00083890","OBJECT_NAME":"STARLINK-1469","INCLINATION":"52.9977","APOAPSIS":"376.099"},{"MEAN_ELEMENT_THEORY":"SGP4","FILE":"3191844","MEAN_MOTION_DDOT":"0.0000000000000","TIME_SYSTEM":"UTC","INCLINATION":"53.0543","APOAPSIS":"548.507","ECCENTRICITY":"0.00018730","OBJECT_NAME":"STARLINK-1476","MEAN_MOTION":"15.06401100","PERIAPSIS":"545.913","GP_ID":"188467117","OBJECT_TYPE":"PAYLOAD","LAUNCH_DATE":"2020-06-13","OBJECT_ID":"2020-038Z","MEAN_ANOMALY":"280.3187","MEAN_MOTION_DOT":"0.00000652","ARG_OF_PERICENTER":"79.8013","TLE_LINE1":"1 45753U 20038Z   21302.91455580  .00000652  00000-0  62655-4 0  9993","COUNTRY_CODE":"US","EPHEMERIS_TYPE":"0","SITE":"AFETR","TLE_LINE2":"2 45753  53.0543 162.3813 0001873  79.8013 280.3187 15.06401100 76568","RA_OF_ASC_NODE":"162.3813","ELEMENT_SET_NO":"999","SEMIMAJOR_AXIS":"6925.345","REV_AT_EPOCH":"7656","EPOCH":"2021-10-29T21:56:57.621120","CLASSIFICATION_TYPE":"U","PERIOD":"95.592","DECAY_DATE":null,"BSTAR":"0.00006265500000","CENTER_NAME":"EARTH","NORAD_CAT_ID":"45753","RCS_SIZE":"LARGE","REF_FRAME":"TEME"},{"DECAY_DATE":null,"PERIOD":"95.592","BSTAR":"0.00018390000000","RCS_SIZE":"LARGE","CENTER_NAME":"EARTH","NORAD_CAT_ID":"45754","REF_FRAME":"TEME","COUNTRY_CODE":"US","TLE_LINE1":"1 45754U 20038AA  21302.85188797  .00002459  00000-0  18390-3 0  9993","ARG_OF_PERICENTER":"81.5721","MEAN_MOTION_DOT":"0.00002459","TLE_LINE2":"2 45754  53.0533 162.6660 0001772  81.5721 278.5469 15.06402551 76557","EPHEMERIS_TYPE":"0","SITE":"AFETR","RA_OF_ASC_NODE":"162.6660","ELEMENT_SET_NO":"999","SEMIMAJOR_AXIS":"6925.341","REV_AT_EPOCH":"7655","EPOCH":"2021-10-29T20:26:43.120608","CLASSIFICATION_TYPE":"U","GP_ID":"188465871","PERIAPSIS":"545.979","OBJECT_TYPE":"PAYLOAD","MEAN_MOTION":"15.06402551","LAUNCH_DATE":"2020-06-13","OBJECT_ID":"2020-038AA","MEAN_ANOMALY":"278.5469","FILE":"3191844","MEAN_ELEMENT_THEORY":"SGP4","TIME_SYSTEM":"UTC","MEAN_MOTION_DDOT":"0.0000000000000","APOAPSIS":"548.433","INCLINATION":"53.0533","OBJECT_NAME":"STARLINK-1477","ECCENTRICITY":"0.00017720"},{"FILE":"3191844","MEAN_ELEMENT_THEORY":"SGP4","TIME_SYSTEM":"UTC","MEAN_MOTION_DDOT":"0.0000000000000","APOAPSIS":"548.455","INCLINATION":"53.0537","ECCENTRICITY":"0.00017890","OBJECT_NAME":"STARLINK-1478","GP_ID":"188465618","PERIAPSIS":"545.977","OBJECT_TYPE":"PAYLOAD","MEAN_MOTION":"15.06399226","MEAN_ANOMALY":"285.7166","LAUNCH_DATE":"2020-06-13","OBJECT_ID":"2020-038AB","TLE_LINE1":"1 45755U 20038AB  21302.73763209  .00000299  00000-0  38986-4 0  9992","COUNTRY_CODE":"US","MEAN_MOTION_DOT":"0.00000299","ARG_OF_PERICENTER":"74.4021","TLE_LINE2":"2 45755  53.0537 163.1806 0001789  74.4021 285.7166 15.06399226 76527","EPHEMERIS_TYPE":"0","SITE":"AFETR","RA_OF_ASC_NODE":"163.1806","SEMIMAJOR_AXIS":"6925.351","ELEMENT_SET_NO":"999","REV_AT_EPOCH":"7652","EPOCH":"2021-10-29T17:42:11.412576","CLASSIFICATION_TYPE":"U","DECAY_DATE":null,"PERIOD":"95.592","BSTAR":"0.00003898600000","RCS_SIZE":"LARGE","CENTER_NAME":"EARTH","NORAD_CAT_ID":"45755","REF_FRAME":"TEME"},{"GP_ID":"188466373","PERIAPSIS":"545.853","OBJECT_TYPE":"PAYLOAD","MEAN_MOTION":"15.06413657","LAUNCH_DATE":"2020-06-13","MEAN_ANOMALY":"281.8189","OBJECT_ID":"2020-038AC","FILE":"3191844","MEAN_ELEMENT_THEORY":"SGP4","TIME_SYSTEM":"UTC","MEAN_MOTION_DDOT":"0.0000000000000","APOAPSIS":"548.490","INCLINATION":"53.0533","OBJECT_NAME":"STARLINK-1484","ECCENTRICITY":"0.00019040","DECAY_DATE":null,"PERIOD":"95.591","BSTAR":"0.00036297000000","RCS_SIZE":"LARGE","CENTER_NAME":"EARTH","NORAD_CAT_ID":"45756","REF_FRAME":"TEME","COUNTRY_CODE":"US","TLE_LINE1":"1 45756U 20038AC  21302.86662962  .00005131  00000-0  36297-3 0  9993","ARG_OF_PERICENTER":"78.3014","MEAN_MOTION_DOT":"0.00005131","TLE_LINE2":"2 45756  53.0533 162.5946 0001904  78.3014 281.8189 15.06413657 76545","EPHEMERIS_TYPE":"0","SITE":"AFETR","RA_OF_ASC_NODE":"162.5946","SEMIMAJOR_AXIS":"6925.307","REV_AT_EPOCH":"7654","ELEMENT_SET_NO":"999","CLASSIFICATION_TYPE":"U","EPOCH":"2021-10-29T20:47:56.799168"},{"MEAN_MOTION_DOT":"0.00001756","ARG_OF_PERICENTER":"78.3757","COUNTRY_CODE":"US","TLE_LINE1":"1 45757U 20038AD  21302.75236713  .00001756  00000-0  13675-3 0  9997","EPHEMERIS_TYPE":"0","SITE":"AFETR","TLE_LINE2":"2 45757  53.0536 163.1105 0001903  78.3757 281.7446 15.06402299 76529","RA_OF_ASC_NODE":"163.1105","ELEMENT_SET_NO":"999","SEMIMAJOR_AXIS":"6925.342","REV_AT_EPOCH":"7652","CLASSIFICATION_TYPE":"U","EPOCH":"2021-10-29T18:03:24.520032","PERIOD":"95.592","DECAY_DATE":null,"BSTAR":"0.00013675000000","CENTER_NAME":"EARTH","NORAD_CAT_ID":"45757","RCS_SIZE":"LARGE","REF_FRAME":"TEME","MEAN_ELEMENT_THEORY":"SGP4","FILE":"3191844","MEAN_MOTION_DDOT":"0.0000000000000","TIME_SYSTEM":"UTC","INCLINATION":"53.0536","APOAPSIS":"548.524","ECCENTRICITY":"0.00019030","OBJECT_NAME":"STARLINK-1486","MEAN_MOTION":"15.06402299","GP_ID":"188466618","PERIAPSIS":"545.889","OBJECT_TYPE":"PAYLOAD","LAUNCH_DATE":"2020-06-13","OBJECT_ID":"2020-038AD","MEAN_ANOMALY":"281.7446"},{"REV_AT_EPOCH":"7652","SEMIMAJOR_AXIS":"6925.348","ELEMENT_SET_NO":"999","CLASSIFICATION_TYPE":"U","EPOCH":"2021-10-29T17:52:47.447904","RA_OF_ASC_NODE":"163.1420","TLE_LINE2":"2 45758  53.0530 163.1420 0001728  76.1762 283.9419 15.06400030 76526","SITE":"AFETR","EPHEMERIS_TYPE":"0","TLE_LINE1":"1 45758U 20038AE  21302.74499361  .00000829  00000-0  74580-4 0  9990","COUNTRY_CODE":"US","MEAN_MOTION_DOT":"0.00000829","ARG_OF_PERICENTER":"76.1762","REF_FRAME":"TEME","RCS_SIZE":"LARGE","CENTER_NAME":"EARTH","NORAD_CAT_ID":"45758","BSTAR":"0.00007458000000","DECAY_DATE":null,"PERIOD":"95.592","ECCENTRICITY":"0.00017280","OBJECT_NAME":"STARLINK-1487","APOAPSIS":"548.410","INCLINATION":"53.0530","TIME_SYSTEM":"UTC","MEAN_MOTION_DDOT":"0.0000000000000","MEAN_ELEMENT_THEORY":"SGP4","FILE":"3191844","MEAN_ANOMALY":"283.9419","LAUNCH_DATE":"2020-06-13","OBJECT_ID":"2020-038AE","PERIAPSIS":"546.017","GP_ID":"188465372","OBJECT_TYPE":"PAYLOAD","MEAN_MOTION":"15.06400030"},{"TIME_SYSTEM":"UTC","MEAN_MOTION_DDOT":"0.0000000000000","FILE":"3191844","MEAN_ELEMENT_THEORY":"SGP4","OBJECT_NAME":"STARLINK-1493","ECCENTRICITY":"0.00016800","APOAPSIS":"548.383","INCLINATION":"53.0528","LAUNCH_DATE":"2020-06-13","OBJECT_ID":"2020-038AF","MEAN_ANOMALY":"278.7033","OBJECT_TYPE":"PAYLOAD","PERIAPSIS":"546.056","GP_ID":"188466118","MEAN_MOTION":"15.06397951","TLE_LINE2":"2 45759  53.0528 162.6317 0001680  81.4146 278.7033 15.06397951 76548","SITE":"AFETR","EPHEMERIS_TYPE":"0","COUNTRY_CODE":"US","TLE_LINE1":"1 45759U 20038AF  21302.85926447  .00000964  00000-0  83603-4 0  9999","ARG_OF_PERICENTER":"81.4146","MEAN_MOTION_DOT":"0.00000964","EPOCH":"2021-10-29T20:37:20.450208","CLASSIFICATION_TYPE":"U","ELEMENT_SET_NO":"999","SEMIMAJOR_AXIS":"6925.355","REV_AT_EPOCH":"7654","RA_OF_ASC_NODE":"162.6317","BSTAR":"0.00008360300000","DECAY_DATE":null,"PERIOD":"95.592","REF_FRAME":"TEME","RCS_SIZE":"LARGE","NORAD_CAT_ID":"45759","CENTER_NAME":"EARTH"},{"LAUNCH_DATE":"2020-06-13","MEAN_ANOMALY":"277.3189","OBJECT_ID":"2020-038AG","MEAN_MOTION":"15.06398564","PERIAPSIS":"546.180","GP_ID":"188466873","OBJECT_TYPE":"PAYLOAD","MEAN_MOTION_DDOT":"0.0000000000000","TIME_SYSTEM":"UTC","MEAN_ELEMENT_THEORY":"SGP4","FILE":"3191844","OBJECT_NAME":"STARLINK-1494","ECCENTRICITY":"0.00014990","INCLINATION":"53.0541","APOAPSIS":"548.256","BSTAR":"0.00005133100000","PERIOD":"95.592","DECAY_DATE":null,"REF_FRAME":"TEME","CENTER_NAME":"EARTH","NORAD_CAT_ID":"45760","RCS_SIZE":"LARGE","EPHEMERIS_TYPE":"0","SITE":"AFETR","TLE_LINE2":"2 45760  53.0541 162.6178 0001499  82.7970 277.3189 15.06398564 76556","ARG_OF_PERICENTER":"82.7970","MEAN_MOTION_DOT":"0.00000483","COUNTRY_CODE":"US","TLE_LINE1":"1 45760U 20038AG  21302.86295488  .00000483  00000-0  51331-4 0  9995","SEMIMAJOR_AXIS":"6925.353","REV_AT_EPOCH":"7655","ELEMENT_SET_NO":"999","CLASSIFICATION_TYPE":"U","EPOCH":"2021-10-29T20:42:39.301632","RA_OF_ASC_NODE":"162.6178"},{"TLE_LINE1":"1 45761U 20038AH  21302.86939735  .00249407  00000-0  54558-2 0  9999","COUNTRY_CODE":"US","ARG_OF_PERICENTER":"48.0300","MEAN_MOTION_DOT":"0.00249407","TLE_LINE2":"2 45761  53.0539 143.3448 0000933  48.0300 312.0784 15.42703672 76833","SITE":"AFETR","EPHEMERIS_TYPE":"0","RA_OF_ASC_NODE":"143.3448","SEMIMAJOR_AXIS":"6816.271","REV_AT_EPOCH":"7683","ELEMENT_SET_NO":"999","CLASSIFICATION_TYPE":"U","EPOCH":"2021-10-29T20:51:55.931040","DECAY_DATE":null,"PERIOD":"93.343","BSTAR":"0.00545580000000","RCS_SIZE":"LARGE","CENTER_NAME":"EARTH","NORAD_CAT_ID":"45761","REF_FRAME":"TEME","FILE":"3191844","MEAN_ELEMENT_THEORY":"SGP4","TIME_SYSTEM":"UTC","MEAN_MOTION_DDOT":"0.0000000000000","APOAPSIS":"438.772","INCLINATION":"53.0539","OBJECT_NAME":"STARLINK-1495","ECCENTRICITY":"0.00009330","GP_ID":"188467118","PERIAPSIS":"437.500","OBJECT_TYPE":"PAYLOAD","MEAN_MOTION":"15.42703672","LAUNCH_DATE":"2020-06-13","MEAN_ANOMALY":"312.0784","OBJECT_ID":"2020-038AH"}];
